[{"OBJECT_NAME":"ONEWEB-0348","OBJECT_ID":"2021-083AD","EPOCH":"2025-09-16T04:15:42.462720","MEAN_MOTION":13.2077193,"ECCENTRICITY":0.00025363,"INCLINATION":87.9266,"RA_OF_ASC_NODE":329.0755,"ARG_OF_PERICENTER":101.5808,"MEAN_ANOMALY":258.561,"EPHEMERIS_TYPE":0,"CLASSIFICATION_TYPE":"U","NORAD_CAT_ID":49213,"ELEMENT_SET_NO":999,"REV_AT_EPOCH":20064,"BSTAR":-0.00010538936,"MEAN_MOTION_DOT":-3.0e-7,"MEAN_MOTION_DDOT":0},{"OBJECT_NAME":"ONEWEB-0350","OBJECT_ID":"2021-083AE","EPOCH":"2025-09-16T06:17:37.287168","MEAN_MOTION":13.1346762,"ECCENTRICITY":0.00019753,"INCLINATION":87.9041,"RA_OF_ASC_NODE":14.6397,"ARG_OF_PERICENTER":106.4009,"MEAN_ANOMALY":253.7337,"EPHEMERIS_TYPE":0,"CLASSIFICATION_TYPE":"U","NORAD_CAT_ID":49214,"ELEMENT_SET_NO":999,"REV_AT_EPOCH":19497,"BSTAR":-0.00031761945,"MEAN_MOTION_DOT":-1.03e-6,"MEAN_MOTION_DDOT":0},{"OBJECT_NAME":"ONEWEB-0351","OBJECT_ID":"2021-083AF","EPOCH":"2025-09-16T04:06:24.777504","MEAN_MOTION":13.20771594,"ECCENTRICITY":0.00013693,"INCLINATION":87.9281,"RA_OF_ASC_NODE":329.0644,"ARG_OF_PERICENTER":125.7045,"MEAN_ANOMALY":234.4216,"EPHEMERIS_TYPE":0,"CLASSIFICATION_TYPE":"U","NORAD_CAT_ID":49215,"ELEMENT_SET_NO":999,"REV_AT_EPOCH":20060,"BSTAR":-0.00032120377,"MEAN_MOTION_DOT":-1.18e-6,"MEAN_MOTION_DDOT":0},{"OBJECT_NAME":"ONEWEB-0352","OBJECT_ID":"2021-083AG","EPOCH":"2025-09-16T05:49:35.665824","MEAN_MOTION":13.13470808,"ECCENTRICITY":0.00014281,"INCLINATION":87.9023,"RA_OF_ASC_NODE":14.6785,"ARG_OF_PERICENTER":111.317,"MEAN_ANOMALY":248.8112,"EPHEMERIS_TYPE":0,"CLASSIFICATION_TYPE":"U","NORAD_CAT_ID":49216,"ELEMENT_SET_NO":999,"REV_AT_EPOCH":19506,"BSTAR":0.00075510637,"MEAN_MOTION_DOT":2.89e-6,"MEAN_MOTION_DDOT":0},{"OBJECT_NAME":"ONEWEB-0354","OBJECT_ID":"2021-083AH","EPOCH":"2025-09-16T04:42:58.454496","MEAN_MOTION":13.20770376,"ECCENTRICITY":0.00021961,"INCLINATION":87.9275,"RA_OF_ASC_NODE":329.0578,"ARG_OF_PERICENTER":103.0673,"MEAN_ANOMALY":257.0706,"EPHEMERIS_TYPE":0,"CLASSIFICATION_TYPE":"U","NORAD_CAT_ID":49217,"ELEMENT_SET_NO":999,"REV_AT_EPOCH":20064,"BSTAR":8.5549653e-5,"MEAN_MOTION_DOT":4.8e-7,"MEAN_MOTION_DDOT":0},{"OBJECT_NAME":"ONEWEB-0355","OBJECT_ID":"2021-083AJ","EPOCH":"2025-09-16T01:02:09.523392","MEAN_MOTION":13.13469131,"ECCENTRICITY":0.00017583,"INCLINATION":87.9036,"RA_OF_ASC_NODE":14.7244,"ARG_OF_PERICENTER":107.2989,"MEAN_ANOMALY":252.8333,"EPHEMERIS_TYPE":0,"CLASSIFICATION_TYPE":"U","NORAD_CAT_ID":49218,"ELEMENT_SET_NO":999,"REV_AT_EPOCH":19491,"BSTAR":-0.00087502491,"MEAN_MOTION_DOT":-3.07e-6,"MEAN_MOTION_DDOT":0},{"OBJECT_NAME":"ONEWEB-0357","OBJECT_ID":"2021-083AK","EPOCH":"2025-09-16T04:38:26.622816","MEAN_MOTION":13.20769161,"ECCENTRICITY":0.00019884,"INCLINATION":87.927,"RA_OF_ASC_NODE":329.0584,"ARG_OF_PERICENTER":104.582,"MEAN_ANOMALY":255.5534,"EPHEMERIS_TYPE":0,"CLASSIFICATION_TYPE":"U","NORAD_CAT_ID":49219,"ELEMENT_SET_NO":999,"REV_AT_EPOCH":20064,"BSTAR":0.0014157583,"MEAN_MOTION_DOT":5.89e-6,"MEAN_MOTION_DDOT":0},{"OBJECT_NAME":"ONEWEB-0332","OBJECT_ID":"2021-090A","EPOCH":"2025-09-16T04:40:13.966176","MEAN_MOTION":13.14503166,"ECCENTRICITY":0.00015755,"INCLINATION":87.9082,"RA_OF_ASC_NODE":344.2766,"ARG_OF_PERICENTER":98.4088,"MEAN_ANOMALY":261.722,"EPHEMERIS_TYPE":0,"CLASSIFICATION_TYPE":"U","NORAD_CAT_ID":49279,"ELEMENT_SET_NO":999,"REV_AT_EPOCH":19158,"BSTAR":-0.00039720012,"MEAN_MOTION_DOT":-1.34e-6,"MEAN_MOTION_DDOT":0},{"OBJECT_NAME":"ONEWEB-0347","OBJECT_ID":"2021-090B","EPOCH":"2025-09-16T04:24:47.422944","MEAN_MOTION":13.20771319,"ECCENTRICITY":0.00016879,"INCLINATION":87.9272,"RA_OF_ASC_NODE":329.0734,"ARG_OF_PERICENTER":89.3215,"MEAN_ANOMALY":270.8111,"EPHEMERIS_TYPE":0,"CLASSIFICATION_TYPE":"U","NORAD_CAT_ID":49280,"ELEMENT_SET_NO":999,"REV_AT_EPOCH":19487,"BSTAR":6.2355103e-5,"MEAN_MOTION_DOT":3.8e-7,"MEAN_MOTION_DDOT":0},{"OBJECT_NAME":"ONEWEB-0349","OBJECT_ID":"2021-090C","EPOCH":"2025-09-16T03:21:09.325728","MEAN_MOTION":13.2077148,"ECCENTRICITY":0.00018899,"INCLINATION":87.9268,"RA_OF_ASC_NODE":329.083,"ARG_OF_PERICENTER":102.0139,"MEAN_ANOMALY":258.1207,"EPHEMERIS_TYPE":0,"CLASSIFICATION_TYPE":"U","NORAD_CAT_ID":49281,"ELEMENT_SET_NO":999,"REV_AT_EPOCH":19365,"BSTAR":0.00030179586,"MEAN_MOTION_DOT":1.36e-6,"MEAN_MOTION_DDOT":0},{"OBJECT_NAME":"ONEWEB-0353","OBJECT_ID":"2021-090D","EPOCH":"2025-09-16T04:28:48.807264","MEAN_MOTION":13.14504199,"ECCENTRICITY":0.00016117,"INCLINATION":87.9075,"RA_OF_ASC_NODE":344.263,"ARG_OF_PERICENTER":96.1795,"MEAN_ANOMALY":263.9519,"EPHEMERIS_TYPE":0,"CLASSIFICATION_TYPE":"U","NORAD_CAT_ID":49282,"ELEMENT_SET_NO":999,"REV_AT_EPOCH":19158,"BSTAR":-0.00042460371,"MEAN_MOTION_DOT":-1.45e-6,"MEAN_MOTION_DDOT":0},{"OBJECT_NAME":"ONEWEB-0356","OBJECT_ID":"2021-090E","EPOCH":"2025-09-15T21:51:37.120320","MEAN_MOTION":13.20770896,"ECCENTRICITY":0.00024859,"INCLINATION":87.9268,"RA_OF_ASC_NODE":329.1202,"ARG_OF_PERICENTER":80.9126,"MEAN_ANOMALY":279.2288,"EPHEMERIS_TYPE":0,"CLASSIFICATION_TYPE":"U","NORAD_CAT_ID":49283,"ELEMENT_SET_NO":999,"REV_AT_EPOCH":19362,"BSTAR":1.1865597e-5,"MEAN_MOTION_DOT":1.8e-7,"MEAN_MOTION_DDOT":0},{"OBJECT_NAME":"ONEWEB-0358","OBJECT_ID":"2021-090F","EPOCH":"2025-09-16T04:02:04.538112","MEAN_MOTION":13.20758911,"ECCENTRICITY":0.00024726,"INCLINATION":87.9278,"RA_OF_ASC_NODE":329.0624,"ARG_OF_PERICENTER":88.8074,"MEAN_ANOMALY":271.3342,"EPHEMERIS_TYPE":0,"CLASSIFICATION_TYPE":"U","NORAD_CAT_ID":49284,"ELEMENT_SET_NO":999,"REV_AT_EPOCH":19438,"BSTAR":0.02070432,"MEAN_MOTION_DOT":8.437e-5,"MEAN_MOTION_DDOT":0},{"OBJECT_NAME":"ONEWEB-0359","OBJECT_ID":"2021-090G","EPOCH":"2025-09-16T03:57:30.943008","MEAN_MOTION":13.20769287,"ECCENTRICITY":0.00022491,"INCLINATION":87.9267,"RA_OF_ASC_NODE":329.0701,"ARG_OF_PERICENTER":103.9149,"MEAN_ANOMALY":256.2235,"EPHEMERIS_TYPE":0,"CLASSIFICATION_TYPE":"U","NORAD_CAT_ID":49285,"ELEMENT_SET_NO":999,"REV_AT_EPOCH":19436,"BSTAR":6.1562915e-5,"MEAN_MOTION_DOT":3.8e-7,"MEAN_MOTION_DDOT":0},{"OBJECT_NAME":"ONEWEB-0360","OBJECT_ID":"2021-090H","EPOCH":"2025-09-16T03:43:53.103936","MEAN_MOTION":13.20772911,"ECCENTRICITY":0.00020475,"INCLINATION":87.927,"RA_OF_ASC_NODE":329.0808,"ARG_OF_PERICENTER":102.7507,"MEAN_ANOMALY":257.3856,"EPHEMERIS_TYPE":0,"CLASSIFICATION_TYPE":"U","NORAD_CAT_ID":49286,"ELEMENT_SET_NO":999,"REV_AT_EPOCH":19367,"BSTAR":0.00017854622,"MEAN_MOTION_DOT":8.6e-7,"MEAN_MOTION_DDOT":0},{"OBJECT_NAME":"ONEWEB-0361","OBJECT_ID":"2021-090J","EPOCH":"2025-09-16T05:05:41.964000","MEAN_MOTION":13.20769721,"ECCENTRICITY":0.00020198,"INCLINATION":87.927,"RA_OF_ASC_NODE":329.0657,"ARG_OF_PERICENTER":94.605,"MEAN_ANOMALY":265.5314,"EPHEMERIS_TYPE":0,"CLASSIFICATION_TYPE":"U","NORAD_CAT_ID":49287,"ELEMENT_SET_NO":999,"REV_AT_EPOCH":19413,"BSTAR":0.00016180651,"MEAN_MOTION_DOT":7.9e-7,"MEAN_MOTION_DDOT":0}]
