ONEWEB-0348             
1 49213U 21083AD  25259.17757480 -.00000030  00000+0 -10539-3 0  9990
2 49213  87.9266 329.0755 0002536 101.5808 258.5610 13.20771930200641
ONEWEB-0350             
1 49214U 21083AE  25259.26223712 -.00000103  00000+0 -31762-3 0  9999
2 49214  87.9041  14.6397 0001975 106.4009 253.7337 13.13467620194976
ONEWEB-0351             
1 49215U 21083AF  25259.17112011 -.00000118  00000+0 -32120-3 0  9994
2 49215  87.9281 329.0644 0001369 125.7045 234.4216 13.20771594200608
ONEWEB-0352             
1 49216U 21083AG  25259.24277391  .00000289  00000+0  75511-3 0  9994
2 49216  87.9023  14.6785 0001428 111.3170 248.8112 13.13470808195065
ONEWEB-0354             
1 49217U 21083AH  25259.19650989  .00000048  00000+0  85550-4 0  9995
2 49217  87.9275 329.0578 0002196 103.0673 257.0706 13.20770376200640
ONEWEB-0355             
1 49218U 21083AJ  25259.04316578 -.00000307  00000+0 -87502-3 0  9991
2 49218  87.9036  14.7244 0001758 107.2989 252.8333 13.13469131194910
ONEWEB-0357             
1 49219U 21083AK  25259.19336369  .00000589  00000+0  14158-2 0  9994
2 49219  87.9270 329.0584 0001988 104.5820 255.5534 13.20769161200644
ONEWEB-0332             
1 49279U 21090A   25259.19460609 -.00000134  00000+0 -39720-3 0  9994
2 49279  87.9082 344.2766 0001575  98.4088 261.7220 13.14503166191588
ONEWEB-0347             
1 49280U 21090B   25259.18388221  .00000038  00000+0  62355-4 0  9996
2 49280  87.9272 329.0734 0001687  89.3215 270.8111 13.20771319194871
ONEWEB-0349             
1 49281U 21090C   25259.13969127  .00000136  00000+0  30180-3 0  9991
2 49281  87.9268 329.0830 0001889 102.0139 258.1207 13.20771480193655
ONEWEB-0353             
1 49282U 21090D   25259.18667601 -.00000145  00000+0 -42460-3 0  9995
2 49282  87.9075 344.2630 0001611  96.1795 263.9519 13.14504199191587
ONEWEB-0356             
1 49283U 21090E   25258.91084630  .00000018  00000+0  11866-4 0  9995
2 49283  87.9268 329.1202 0002485  80.9126 279.2288 13.20770896193624
ONEWEB-0358             
1 49284U 21090F   25259.16810808  .00008437  00000+0  20704-1 0  9999
2 49284  87.9278 329.0624 0002472  88.8074 271.3342 13.20758911194380
ONEWEB-0359             
1 49285U 21090G   25259.16494147  .00000038  00000+0  61563-4 0  9994
2 49285  87.9267 329.0701 0002249 103.9149 256.2235 13.20769287194368
ONEWEB-0360             
1 49286U 21090H   25259.15547574  .00000086  00000+0  17855-3 0  9994
2 49286  87.9270 329.0808 0002047 102.7507 257.3856 13.20772911193674
ONEWEB-0361             
1 49287U 21090J   25259.21229125  .00000079  00000+0  16181-3 0  9994
2 49287  87.9270 329.0657 0002019  94.6050 265.5314 13.20769721194135
